ONEWEB-0553             
1 56055U 23043K   24046.95202818  .00000040  00000+0  72330-4 0  9996
2 56055  87.9054  38.3866 0001367  91.5929 268.5358 13.16593523 46838
ONEWEB-0554             
1 56056U 23043L   24047.47132736 -.00002790  00000+0 -73330-2 0  9991
2 56056  87.9060  38.3013 0002568  95.1929 264.9495 13.16602481 47796
ONEWEB-0555             
1 56057U 23043M   24047.50932679  .00000118  00000+0  27448-3 0  9990
2 56057  87.9058  38.2683 0001496 110.3208 249.8084 13.16596056 47803
ONEWEB-0557             
1 56058U 23043N   24046.68762428 -.00000041  00000+0 -14149-3 0  9993
2 56058  87.9054  38.4581 0001842 122.6605 237.4704 13.16594806 46780
ONEWEB-0558             
1 56059U 23043P   24047.02535691  .00000058  00000+0  10771-3 0  9996
2 56059  87.9207  53.5967 0002107  75.4435 284.6932 13.21824471 46572
ONEWEB-0559             
1 56060U 23043Q   24047.46848890  .00000076  00000+0  15276-3 0  9999
2 56060  87.9206  53.5078 0002518  85.5379 274.6042 13.21823875 46647
ONEWEB-0566             
1 56061U 23043R   24047.46219732  .00000068  00000+0  13250-3 0  9998
2 56061  87.9206  53.5101 0002300  71.0379 289.1004 13.21826607 46627
ONEWEB-0568             
1 56062U 23043S   24046.93303334 -.00000062  00000+0 -19610-3 0  9994
2 56062  87.9053  38.3735 0001512  94.6931 265.4372 13.16594068 46836
